<xml>
<item>
<COMMENT>GENERATED VIA SPACETRACK.ORG API</COMMENT>
<ORIGINATOR>18 SPCS</ORIGINATOR>
<NORAD_CAT_ID>56817</NORAD_CAT_ID>
<OBJECT_NAME>STARLINK-5982</OBJECT_NAME>
<OBJECT_TYPE>PAYLOAD</OBJECT_TYPE>
<CLASSIFICATION_TYPE>U</CLASSIFICATION_TYPE>
<INTLDES>23078BC</INTLDES>
<EPOCH>2023-10-30 11:54:42</EPOCH>
<EPOCH_MICROSECONDS>238080</EPOCH_MICROSECONDS>
<MEAN_MOTION>14.9831661</MEAN_MOTION>
<ECCENTRICITY>0.0002625</ECCENTRICITY>
<INCLINATION>70</INCLINATION>
<RA_OF_ASC_NODE>355.7526</RA_OF_ASC_NODE>
<ARG_OF_PERICENTER>264.1787</ARG_OF_PERICENTER>
<MEAN_ANOMALY>95.9073</MEAN_ANOMALY>
<EPHEMERIS_TYPE>0</EPHEMERIS_TYPE>
<ELEMENT_SET_NO>999</ELEMENT_SET_NO>
<REV_AT_EPOCH>2394</REV_AT_EPOCH>
<BSTAR>0.00003417</BSTAR>
<MEAN_MOTION_DOT>0.00000315</MEAN_MOTION_DOT>
<MEAN_MOTION_DDOT>0</MEAN_MOTION_DDOT>
<FILE>4061285</FILE>
<TLE_LINE0>0 STARLINK-5982</TLE_LINE0>
<TLE_LINE1>1 56817U 23078BC 23303.49632220 .00000315 00000-0 34170-4 0 9994</TLE_LINE1>
<TLE_LINE2>2 56817 70.0000 355.7526 0002625 264.1787 95.9073 14.98316610 23949</TLE_LINE2>
<OBJECT_ID>2023-078BC</OBJECT_ID>
<OBJECT_NUMBER>56817</OBJECT_NUMBER>
<SEMIMAJOR_AXIS>6950.234</SEMIMAJOR_AXIS>
<PERIOD>96.108</PERIOD>
<APOGEE>573.924</APOGEE>
<PERIGEE>570.275</PERIGEE>
<DECAYED>0</DECAYED>
</item>
<item>
<COMMENT>GENERATED VIA SPACETRACK.ORG API</COMMENT>
<ORIGINATOR>18 SPCS</ORIGINATOR>
<NORAD_CAT_ID>56803</NORAD_CAT_ID>
<OBJECT_NAME>STARLINK-6029</OBJECT_NAME>
<OBJECT_TYPE>PAYLOAD</OBJECT_TYPE>
<CLASSIFICATION_TYPE>U</CLASSIFICATION_TYPE>
<INTLDES>23078AN</INTLDES>
<EPOCH>2023-10-30 12:06:43</EPOCH>
<EPOCH_MICROSECONDS>204608</EPOCH_MICROSECONDS>
<MEAN_MOTION>14.98320113</MEAN_MOTION>
<ECCENTRICITY>0.0002559</ECCENTRICITY>
<INCLINATION>70</INCLINATION>
<RA_OF_ASC_NODE>355.7823</RA_OF_ASC_NODE>
<ARG_OF_PERICENTER>263.2451</ARG_OF_PERICENTER>
<MEAN_ANOMALY>96.8417</MEAN_ANOMALY>
<EPHEMERIS_TYPE>0</EPHEMERIS_TYPE>
<ELEMENT_SET_NO>999</ELEMENT_SET_NO>
<REV_AT_EPOCH>2368</REV_AT_EPOCH>
<BSTAR>0.000033632</BSTAR>
<MEAN_MOTION_DOT>0.00000308</MEAN_MOTION_DOT>
<MEAN_MOTION_DDOT>0</MEAN_MOTION_DDOT>
<FILE>4061878</FILE>
<TLE_LINE0>0 STARLINK-6029</TLE_LINE0>
<TLE_LINE1>1 56803U 23078AN 23303.50466672 .00000308 00000-0 33632-4 0 9991</TLE_LINE1>
<TLE_LINE2>2 56803 70.0000 355.7823 0002559 263.2451 96.8417 14.98320113 23684</TLE_LINE2>
<OBJECT_ID>2023-078AN</OBJECT_ID>
<OBJECT_NUMBER>56803</OBJECT_NUMBER>
<SEMIMAJOR_AXIS>6950.223</SEMIMAJOR_AXIS>
<PERIOD>96.108</PERIOD>
<APOGEE>573.867</APOGEE>
<PERIGEE>570.310</PERIGEE>
<DECAYED>0</DECAYED>
</item>
<item>
<COMMENT>GENERATED VIA SPACETRACK.ORG API</COMMENT>
<ORIGINATOR>18 SPCS</ORIGINATOR>
<NORAD_CAT_ID>55290</NORAD_CAT_ID>
<OBJECT_NAME>STARLINK-5266</OBJECT_NAME>
<OBJECT_TYPE>PAYLOAD</OBJECT_TYPE>
<CLASSIFICATION_TYPE>U</CLASSIFICATION_TYPE>
<INTLDES>23010X</INTLDES>
<EPOCH>2023-10-30 12:31:25</EPOCH>
<EPOCH_MICROSECONDS>924512</EPOCH_MICROSECONDS>
<MEAN_MOTION>14.98313515</MEAN_MOTION>
<ECCENTRICITY>0.0002977</ECCENTRICITY>
<INCLINATION>70</INCLINATION>
<RA_OF_ASC_NODE>35.8084</RA_OF_ASC_NODE>
<ARG_OF_PERICENTER>268.5323</ARG_OF_PERICENTER>
<MEAN_ANOMALY>91.5495</MEAN_ANOMALY>
<EPHEMERIS_TYPE>0</EPHEMERIS_TYPE>
<ELEMENT_SET_NO>999</ELEMENT_SET_NO>
<REV_AT_EPOCH>4397</REV_AT_EPOCH>
<BSTAR>-0.000061291</BSTAR>
<MEAN_MOTION_DOT>-0.00000824</MEAN_MOTION_DOT>
<MEAN_MOTION_DDOT>0</MEAN_MOTION_DDOT>
<FILE>4061160</FILE>
<TLE_LINE0>0 STARLINK-5266</TLE_LINE0>
<TLE_LINE1>1 55290U 23010X 23303.52182783 -.00000824 00000-0 -61291-4 0 9993</TLE_LINE1>
<TLE_LINE2>2 55290 70.0000 35.8084 0002977 268.5323 91.5495 14.98313515 43978</TLE_LINE2>
<OBJECT_ID>2023-010X</OBJECT_ID>
<OBJECT_NUMBER>55290</OBJECT_NUMBER>
<SEMIMAJOR_AXIS>6950.244</SEMIMAJOR_AXIS>
<PERIOD>96.108</PERIOD>
<APOGEE>574.178</APOGEE>
<PERIGEE>570.040</PERIGEE>
<DECAYED>0</DECAYED>
</item>
<item>
<COMMENT>GENERATED VIA SPACETRACK.ORG API</COMMENT>
<ORIGINATOR>18 SPCS</ORIGINATOR>
<NORAD_CAT_ID>55290</NORAD_CAT_ID>
<OBJECT_NAME>STARLINK-5266</OBJECT_NAME>
<OBJECT_TYPE>PAYLOAD</OBJECT_TYPE>
<CLASSIFICATION_TYPE>U</CLASSIFICATION_TYPE>
<INTLDES>23010X</INTLDES>
<EPOCH>2023-10-30 12:31:25</EPOCH>
<EPOCH_MICROSECONDS>924512</EPOCH_MICROSECONDS>
<MEAN_MOTION>14.98313515</MEAN_MOTION>
<ECCENTRICITY>0.0002977</ECCENTRICITY>
<INCLINATION>70</INCLINATION>
<RA_OF_ASC_NODE>35.8084</RA_OF_ASC_NODE>
<ARG_OF_PERICENTER>268.5323</ARG_OF_PERICENTER>
<MEAN_ANOMALY>91.5495</MEAN_ANOMALY>
<EPHEMERIS_TYPE>0</EPHEMERIS_TYPE>
<ELEMENT_SET_NO>999</ELEMENT_SET_NO>
<REV_AT_EPOCH>4427</REV_AT_EPOCH>
<BSTAR>-0.000061291</BSTAR>
<MEAN_MOTION_DOT>-0.00000824</MEAN_MOTION_DOT>
<MEAN_MOTION_DDOT>0</MEAN_MOTION_DDOT>
<FILE>4061878</FILE>
<TLE_LINE0>0 STARLINK-5266</TLE_LINE0>
<TLE_LINE1>1 55290U 23010X 23303.52182783 -.00000824 00000-0 -61291-4 0 9993</TLE_LINE1>
<TLE_LINE2>2 55290 70.0000 35.8084 0002977 268.5323 91.5495 14.98313515 44272</TLE_LINE2>
<OBJECT_ID>2023-010X</OBJECT_ID>
<OBJECT_NUMBER>55290</OBJECT_NUMBER>
<SEMIMAJOR_AXIS>6950.244</SEMIMAJOR_AXIS>
<PERIOD>96.108</PERIOD>
<APOGEE>574.178</APOGEE>
<PERIGEE>570.040</PERIGEE>
<DECAYED>0</DECAYED>
</item>
<item>
<COMMENT>GENERATED VIA SPACETRACK.ORG API</COMMENT>
<ORIGINATOR>18 SPCS</ORIGINATOR>
<NORAD_CAT_ID>55286</NORAD_CAT_ID>
<OBJECT_NAME>STARLINK-5338</OBJECT_NAME>
<OBJECT_TYPE>PAYLOAD</OBJECT_TYPE>
<CLASSIFICATION_TYPE>U</CLASSIFICATION_TYPE>
<INTLDES>23010T</INTLDES>
<EPOCH>2023-10-30 12:37:26</EPOCH>
<EPOCH_MICROSECONDS>224608</EPOCH_MICROSECONDS>
<MEAN_MOTION>14.98317533</MEAN_MOTION>
<ECCENTRICITY>0.0003088</ECCENTRICITY>
<INCLINATION>70</INCLINATION>
<RA_OF_ASC_NODE>35.8229</RA_OF_ASC_NODE>
<ARG_OF_PERICENTER>273.2005</ARG_OF_PERICENTER>
<MEAN_ANOMALY>86.8801</MEAN_ANOMALY>
<EPHEMERIS_TYPE>0</EPHEMERIS_TYPE>
<ELEMENT_SET_NO>999</ELEMENT_SET_NO>
<REV_AT_EPOCH>4396</REV_AT_EPOCH>
<BSTAR>-0.000034191</BSTAR>
<MEAN_MOTION_DOT>-0.00000501</MEAN_MOTION_DOT>
<MEAN_MOTION_DDOT>0</MEAN_MOTION_DDOT>
<FILE>4061731</FILE>
<TLE_LINE0>0 STARLINK-5338</TLE_LINE0>
<TLE_LINE1>1 55286U 23010T 23303.52599797 -.00000501 00000-0 -34191-4 0 9996</TLE_LINE1>
<TLE_LINE2>2 55286 70.0000 35.8229 0003088 273.2005 86.8801 14.98317533 43969</TLE_LINE2>
<OBJECT_ID>2023-010T</OBJECT_ID>
<OBJECT_NUMBER>55286</OBJECT_NUMBER>
<SEMIMAJOR_AXIS>6950.231</SEMIMAJOR_AXIS>
<PERIOD>96.108</PERIOD>
<APOGEE>574.243</APOGEE>
<PERIGEE>569.950</PERIGEE>
<DECAYED>0</DECAYED>
</item>
<item>
<COMMENT>GENERATED VIA SPACETRACK.ORG API</COMMENT>
<ORIGINATOR>18 SPCS</ORIGINATOR>
<NORAD_CAT_ID>55286</NORAD_CAT_ID>
<OBJECT_NAME>STARLINK-5338</OBJECT_NAME>
<OBJECT_TYPE>PAYLOAD</OBJECT_TYPE>
<CLASSIFICATION_TYPE>U</CLASSIFICATION_TYPE>
<INTLDES>23010T</INTLDES>
<EPOCH>2023-10-30 12:37:26</EPOCH>
<EPOCH_MICROSECONDS>224608</EPOCH_MICROSECONDS>
<MEAN_MOTION>14.98317533</MEAN_MOTION>
<ECCENTRICITY>0.0003088</ECCENTRICITY>
<INCLINATION>70</INCLINATION>
<RA_OF_ASC_NODE>35.8229</RA_OF_ASC_NODE>
<ARG_OF_PERICENTER>273.2005</ARG_OF_PERICENTER>
<MEAN_ANOMALY>86.8801</MEAN_ANOMALY>
<EPHEMERIS_TYPE>0</EPHEMERIS_TYPE>
<ELEMENT_SET_NO>999</ELEMENT_SET_NO>
<REV_AT_EPOCH>4427</REV_AT_EPOCH>
<BSTAR>-0.000034191</BSTAR>
<MEAN_MOTION_DOT>-0.00000501</MEAN_MOTION_DOT>
<MEAN_MOTION_DDOT>0</MEAN_MOTION_DDOT>
<FILE>4061878</FILE>
<TLE_LINE0>0 STARLINK-5338</TLE_LINE0>
<TLE_LINE1>1 55286U 23010T 23303.52599797 -.00000501 00000-0 -34191-4 0 9996</TLE_LINE1>
<TLE_LINE2>2 55286 70.0000 35.8229 0003088 273.2005 86.8801 14.98317533 44274</TLE_LINE2>
<OBJECT_ID>2023-010T</OBJECT_ID>
<OBJECT_NUMBER>55286</OBJECT_NUMBER>
<SEMIMAJOR_AXIS>6950.231</SEMIMAJOR_AXIS>
<PERIOD>96.108</PERIOD>
<APOGEE>574.243</APOGEE>
<PERIGEE>569.950</PERIGEE>
<DECAYED>0</DECAYED>
</item>
<item>
<COMMENT>GENERATED VIA SPACETRACK.ORG API</COMMENT>
<ORIGINATOR>18 SPCS</ORIGINATOR>
<NORAD_CAT_ID>55305</NORAD_CAT_ID>
<OBJECT_NAME>STARLINK-5316</OBJECT_NAME>
<OBJECT_TYPE>PAYLOAD</OBJECT_TYPE>
<CLASSIFICATION_TYPE>U</CLASSIFICATION_TYPE>
<INTLDES>23010AN</INTLDES>
<EPOCH>2023-10-30 13:07:29</EPOCH>
<EPOCH_MICROSECONDS>557632</EPOCH_MICROSECONDS>
<MEAN_MOTION>14.98317405</MEAN_MOTION>
<ECCENTRICITY>0.0002962</ECCENTRICITY>
<INCLINATION>70</INCLINATION>
<RA_OF_ASC_NODE>35.8955</RA_OF_ASC_NODE>
<ARG_OF_PERICENTER>268.0974</ARG_OF_PERICENTER>
<MEAN_ANOMALY>91.9846</MEAN_ANOMALY>
<EPHEMERIS_TYPE>0</EPHEMERIS_TYPE>
<ELEMENT_SET_NO>999</ELEMENT_SET_NO>
<REV_AT_EPOCH>4428</REV_AT_EPOCH>
<BSTAR>-0.000012947</BSTAR>
<MEAN_MOTION_DOT>-0.00000247</MEAN_MOTION_DOT>
<MEAN_MOTION_DDOT>0</MEAN_MOTION_DDOT>
<FILE>4061878</FILE>
<TLE_LINE0>0 STARLINK-5316</TLE_LINE0>
<TLE_LINE1>1 55305U 23010AN 23303.54686988 -.00000247 00000-0 -12947-4 0 9991</TLE_LINE1>
<TLE_LINE2>2 55305 70.0000 35.8955 0002962 268.0974 91.9846 14.98317405 44284</TLE_LINE2>
<OBJECT_ID>2023-010AN</OBJECT_ID>
<OBJECT_NUMBER>55305</OBJECT_NUMBER>
<SEMIMAJOR_AXIS>6950.232</SEMIMAJOR_AXIS>
<PERIOD>96.108</PERIOD>
<APOGEE>574.155</APOGEE>
<PERIGEE>570.038</PERIGEE>
<DECAYED>0</DECAYED>
</item>

</xml>
